GOES 1 (SMS-C) [-]      
1 08366U 75100A   19360.42932972 -.00000222  00000-0  00000+0 0  9999
2 08366  10.3317 307.1880 0005219 332.4664 248.6079  1.00279818161495
GOES 2 [-]              
1 10061U 77048A   19360.05362400  .00000034  00000-0  00000+0 0  9999
2 10061  11.7520 317.0922 0017617 351.6785 195.2550  0.99397617100006
GOES 3 [-]              
1 10953U 78062A   19360.12131922 -.00000098  00000-0  00000+0 0  9998
2 10953  11.9900 321.0181 0004236 357.8811 188.9614  0.99363658105095
GOES 4 [-]              
1 11964U 80074A   19360.21989604 -.00000313  00000-0  00000+0 0  9995
2 11964  12.8617 324.7658 0034991  38.0033 314.8559  0.99233336104150
GOES 5 [-]              
1 12472U 81049A   19360.39253618 -.00000286  00000-0  00000+0 0  9990
2 12472  13.3640 335.3768 0004609 321.3016 229.4377  1.00298160 99251
GOES 6 [-]              
1 14050U 83041A   19360.39122763 -.00000266  00000-0  00000+0 0  9992
2 14050  13.7505 340.4165 0002329 347.9348 190.5347  1.00290233192348
GOES 7 [-]              
1 17561U 87022A   19360.19512097  .00000039  00000-0  00000+0 0  9993
2 17561  14.8869 356.5652 0007745 346.9053 201.5009  0.99902840103353
GOES 8 [-]              
1 23051U 94022A   19360.45188095 -.00000266  00000-0  00000+0 0  9991
2 23051  12.3788  30.9238 0008037 295.7731  62.9575  0.98906573100731
GOES 9 [-]              
1 23581U 95025A   19360.22860910 -.00000108  00000-0  00000+0 0  9996
2 23581  11.8673  30.8162 0001403 343.9303 182.7995  0.98800999 89381
GOES 10 [-]             
1 24786U 97019A   19360.04041935  .00000013  00000-0  00000+0 0  9991
2 24786  10.4032  36.3369 0026773 189.9198 322.5798  0.99120203 82618
GOES 11 [-]             
1 26352U 00022A   19360.41852275 -.00000004  00000-0  00000+0 0  9999
2 26352   6.8109  66.2680 0005536 214.2766 172.5033  0.99042896 71577
GOES 12 [-]             
1 26871U 01031A   19360.44077770 -.00000213  00000-0  00000+0 0  9990
2 26871   7.9351  53.8564 0009850 258.6973 112.6738  0.99141121 67294
GOES 13 [B]             
1 29155U 06018A   19360.46299229 -.00000347  00000-0  00000+0 0  9993
2 29155   0.2628  92.6728 0009188 170.2367 115.8677  0.99989731 49809
GOES 14 [S]             
1 35491U 09033A   19360.54753566 -.00000094  00000-0  00000+0 0  9990
2 35491   0.1056 283.2513 0011882 307.2443 317.1898  1.00271526 38443
GOES 15 [+]             
1 36411U 10008A   19360.48901803  .00000055  00000-0  00000+0 0  9995
2 36411   0.1354 271.2172 0001774 259.4374 331.9039  1.00265107 35957
GOES 16 [+]             
1 41866U 16071A   19360.52099659 -.00000249  00000-0  00000+0 0  9999
2 41866   0.0526 134.4518 0000364 216.0074 216.6218  1.00270852 11394
GOES-S [+]              
1 43226U 18022A   19360.48959057  .00000097  00000-0  00000+0 0  9991
2 43226   0.0581 119.6615 0000144 116.4029 257.6780  1.00269767  6722
